[{"OBJECT_NAME":"NEXSAT-1","OBJECT_ID":"2024-024E","EPOCH":"2026-03-09T22:47:24.778176","MEAN_MOTION":15.32166372,"ECCENTRICITY":0.00099795,"INCLINATION":97.3124,"RA_OF_ASC_NODE":144.1918,"ARG_OF_PERICENTER":108.5709,"MEAN_ANOMALY":251.6617,"EPHEMERIS_TYPE":0,"CLASSIFICATION_TYPE":"U","NORAD_CAT_ID":58921,"ELEMENT_SET_NO":999,"REV_AT_EPOCH":11669,"BSTAR":0.00031433612,"MEAN_MOTION_DOT":9.702e-5,"MEAN_MOTION_DDOT":0},{"OBJECT_NAME":"STARLINK-32191","OBJECT_ID":"2024-133P","EPOCH":"2026-03-09T21:26:57.118560","MEAN_MOTION":15.30182582,"ECCENTRICITY":0.00010783,"INCLINATION":53.1608,"RA_OF_ASC_NODE":295.963,"ARG_OF_PERICENTER":82.7515,"MEAN_ANOMALY":277.3608,"EPHEMERIS_TYPE":0,"CLASSIFICATION_TYPE":"U","NORAD_CAT_ID":60314,"ELEMENT_SET_NO":999,"REV_AT_EPOCH":9167,"BSTAR":1.0516186e-5,"MEAN_MOTION_DOT":-4.8e-7,"MEAN_MOTION_DDOT":0}]
